[
    {
        "OBJECT_NAME": "COSMOS 2179 [GLONASS]",
        "OBJECT_ID": "1992-005C",
        "EPOCH": "2026-07-08T03:14:58.126272",
        "MEAN_MOTION": 2.13102709,
        "ECCENTRICITY": 0.0014535,
        "INCLINATION": 64.9029,
        "RA_OF_ASC_NODE": 69.3163,
        "ARG_OF_PERICENTER": 251.8049,
        "MEAN_ANOMALY": 231.1147,
        "EPHEMERIS_TYPE": 0,
        "CLASSIFICATION_TYPE": "U",
        "NORAD_CAT_ID": 21855,
        "ELEMENT_SET_NO": 999,
        "REV_AT_EPOCH": 26779,
        "BSTAR": 0,
        "MEAN_MOTION_DOT": -2.4e-07,
        "MEAN_MOTION_DDOT": 0
    },
    {
        "OBJECT_NAME": "COSMOS 2206 [GLONASS]",
        "OBJECT_ID": "1992-047A",
        "EPOCH": "2026-07-05T19:28:55.166304",
        "MEAN_MOTION": 2.13106918,
        "ECCENTRICITY": 0.00110868,
        "INCLINATION": 64.1273,
        "RA_OF_ASC_NODE": 301.4269,
        "ARG_OF_PERICENTER": 240.6553,
        "MEAN_ANOMALY": 108.8178,
        "EPHEMERIS_TYPE": 0,
        "CLASSIFICATION_TYPE": "U",
        "NORAD_CAT_ID": 22056,
        "ELEMENT_SET_NO": 999,
        "REV_AT_EPOCH": 26401,
        "BSTAR": 0,
        "MEAN_MOTION_DOT": -3.9e-07,
        "MEAN_MOTION_DDOT": 0
    },
    {
        "OBJECT_NAME": "COSMOS 2204 [GLONASS]",
        "OBJECT_ID": "1992-047B",
        "EPOCH": "2026-07-10T00:00:22.494240",
        "MEAN_MOTION": 2.13102614,
        "ECCENTRICITY": 0.00156927,
        "INCLINATION": 64.1409,
        "RA_OF_ASC_NODE": 301.481,
        "ARG_OF_PERICENTER": 344.9334,
        "MEAN_ANOMALY": 13.4828,
        "EPHEMERIS_TYPE": 0,
        "CLASSIFICATION_TYPE": "U",
        "NORAD_CAT_ID": 22057,
        "ELEMENT_SET_NO": 999,
        "REV_AT_EPOCH": 26401,
        "BSTAR": 0,
        "MEAN_MOTION_DOT": -5.1e-07,
        "MEAN_MOTION_DDOT": 0
    },
    {
        "OBJECT_NAME": "COSMOS 2205 [GLONASS]",
        "OBJECT_ID": "1992-047C",
        "EPOCH": "2026-07-09T11:28:00.021792",
        "MEAN_MOTION": 2.13103067,
        "ECCENTRICITY": 0.00203177,
        "INCLINATION": 64.1351,
        "RA_OF_ASC_NODE": 301.4343,
        "ARG_OF_PERICENTER": 222.422,
        "MEAN_ANOMALY": 144.4446,
        "EPHEMERIS_TYPE": 0,
        "CLASSIFICATION_TYPE": "U",
        "NORAD_CAT_ID": 22058,
        "ELEMENT_SET_NO": 999,
        "REV_AT_EPOCH": 26401,
        "BSTAR": 0,
        "MEAN_MOTION_DOT": -5e-07,
        "MEAN_MOTION_DDOT": 0
    },
    {
        "OBJECT_NAME": "COSMOS 2234 [GLONASS]",
        "OBJECT_ID": "1993-010A",
        "EPOCH": "2026-07-10T04:43:59.866752",
        "MEAN_MOTION": 2.13103474,
        "ECCENTRICITY": 0.00220079,
        "INCLINATION": 64.9162,
        "RA_OF_ASC_NODE": 69.2875,
        "ARG_OF_PERICENTER": 215.9792,
        "MEAN_ANOMALY": 345.3542,
        "EPHEMERIS_TYPE": 0,
        "CLASSIFICATION_TYPE": "U",
        "NORAD_CAT_ID": 22512,
        "ELEMENT_SET_NO": 999,
        "REV_AT_EPOCH": 25962,
        "BSTAR": 0,
        "MEAN_MOTION_DOT": -2.4e-07,
        "MEAN_MOTION_DDOT": 0
    },
    {
        "OBJECT_NAME": "COSMOS 2236 [GLONASS]",
        "OBJECT_ID": "1993-010B",
        "EPOCH": "2026-07-10T01:22:39.570816",
        "MEAN_MOTION": 2.13104496,
        "ECCENTRICITY": 0.00049674,
        "INCLINATION": 64.911,
        "RA_OF_ASC_NODE": 69.1925,
        "ARG_OF_PERICENTER": 64.0076,
        "MEAN_ANOMALY": 117.4438,
        "EPHEMERIS_TYPE": 0,
        "CLASSIFICATION_TYPE": "U",
        "NORAD_CAT_ID": 22513,
        "ELEMENT_SET_NO": 999,
        "REV_AT_EPOCH": 25986,
        "BSTAR": 0,
        "MEAN_MOTION_DOT": -2.5e-07,
        "MEAN_MOTION_DDOT": 0
    },
    {
        "OBJECT_NAME": "COSMOS 2235 [GLONASS]",
        "OBJECT_ID": "1993-010C",
        "EPOCH": "2026-07-09T12:35:51.603648",
        "MEAN_MOTION": 2.13102442,
        "ECCENTRICITY": 0.00078452,
        "INCLINATION": 64.9267,
        "RA_OF_ASC_NODE": 69.5402,
        "ARG_OF_PERICENTER": 209.2209,
        "MEAN_ANOMALY": 328.5943,
        "EPHEMERIS_TYPE": 0,
        "CLASSIFICATION_TYPE": "U",
        "NORAD_CAT_ID": 22514,
        "ELEMENT_SET_NO": 999,
        "REV_AT_EPOCH": 25976,
        "BSTAR": 0,
        "MEAN_MOTION_DOT": -2.5e-07,
        "MEAN_MOTION_DDOT": 0
    },
    {
        "OBJECT_NAME": "COSMOS 2276 [GLONASS]",
        "OBJECT_ID": "1994-021A",
        "EPOCH": "2026-07-10T08:16:56.322048",
        "MEAN_MOTION": 2.13099357,
        "ECCENTRICITY": 0.00210769,
        "INCLINATION": 63.9765,
        "RA_OF_ASC_NODE": 299.9758,
        "ARG_OF_PERICENTER": 188.6637,
        "MEAN_ANOMALY": 177.2918,
        "EPHEMERIS_TYPE": 0,
        "CLASSIFICATION_TYPE": "U",
        "NORAD_CAT_ID": 23043,
        "ELEMENT_SET_NO": 999,
        "REV_AT_EPOCH": 25073,
        "BSTAR": 0,
        "MEAN_MOTION_DOT": -5e-07,
        "MEAN_MOTION_DDOT": 0
    },
    {
        "OBJECT_NAME": "COSMOS 2277 [GLONASS]",
        "OBJECT_ID": "1994-021B",
        "EPOCH": "2026-07-07T06:31:57.710208",
        "MEAN_MOTION": 2.13104484,
        "ECCENTRICITY": 0.0058932,
        "INCLINATION": 63.9665,
        "RA_OF_ASC_NODE": 299.9407,
        "ARG_OF_PERICENTER": 209.2735,
        "MEAN_ANOMALY": 149.6608,
        "EPHEMERIS_TYPE": 0,
        "CLASSIFICATION_TYPE": "U",
        "NORAD_CAT_ID": 23044,
        "ELEMENT_SET_NO": 999,
        "REV_AT_EPOCH": 25083,
        "BSTAR": 0,
        "MEAN_MOTION_DOT": -4.3e-07,
        "MEAN_MOTION_DDOT": 0
    },
    {
        "OBJECT_NAME": "COSMOS 2275 [GLONASS]",
        "OBJECT_ID": "1994-021C",
        "EPOCH": "2026-07-10T07:33:49.034304",
        "MEAN_MOTION": 2.13101459,
        "ECCENTRICITY": 0.00283726,
        "INCLINATION": 63.9529,
        "RA_OF_ASC_NODE": 299.7228,
        "ARG_OF_PERICENTER": 33.5635,
        "MEAN_ANOMALY": 322.3177,
        "EPHEMERIS_TYPE": 0,
        "CLASSIFICATION_TYPE": "U",
        "NORAD_CAT_ID": 23045,
        "ELEMENT_SET_NO": 999,
        "REV_AT_EPOCH": 25071,
        "BSTAR": 0,
        "MEAN_MOTION_DOT": -4.9e-07,
        "MEAN_MOTION_DDOT": 0
    },
    {
        "OBJECT_NAME": "COSMOS 2287 [GLONASS]",
        "OBJECT_ID": "1994-050A",
        "EPOCH": "2026-07-10T06:20:55.346208",
        "MEAN_MOTION": 2.13101316,
        "ECCENTRICITY": 0.00120481,
        "INCLINATION": 65.4192,
        "RA_OF_ASC_NODE": 201.4714,
        "ARG_OF_PERICENTER": 15.6295,
        "MEAN_ANOMALY": 100.0306,
        "EPHEMERIS_TYPE": 0,
        "CLASSIFICATION_TYPE": "U",
        "NORAD_CAT_ID": 23203,
        "ELEMENT_SET_NO": 999,
        "REV_AT_EPOCH": 24834,
        "BSTAR": 0,
        "MEAN_MOTION_DOT": 1.27e-06,
        "MEAN_MOTION_DDOT": 0
    },
    {
        "OBJECT_NAME": "COSMOS 2289 [GLONASS]",
        "OBJECT_ID": "1994-050B",
        "EPOCH": "2026-07-09T08:21:40.365504",
        "MEAN_MOTION": 2.13103332,
        "ECCENTRICITY": 0.00093365,
        "INCLINATION": 65.4079,
        "RA_OF_ASC_NODE": 201.3595,
        "ARG_OF_PERICENTER": 319.3043,
        "MEAN_ANOMALY": 40.6752,
        "EPHEMERIS_TYPE": 0,
        "CLASSIFICATION_TYPE": "U",
        "NORAD_CAT_ID": 23204,
        "ELEMENT_SET_NO": 999,
        "REV_AT_EPOCH": 24814,
        "BSTAR": 0,
        "MEAN_MOTION_DOT": 1.28e-06,
        "MEAN_MOTION_DDOT": 0
    },
    {
        "OBJECT_NAME": "COSMOS 2288 [GLONASS]",
        "OBJECT_ID": "1994-050C",
        "EPOCH": "2026-07-10T04:17:37.915584",
        "MEAN_MOTION": 2.13101605,
        "ECCENTRICITY": 0.00024391,
        "INCLINATION": 65.414,
        "RA_OF_ASC_NODE": 201.4094,
        "ARG_OF_PERICENTER": 294.2427,
        "MEAN_ANOMALY": 64.346,
        "EPHEMERIS_TYPE": 0,
        "CLASSIFICATION_TYPE": "U",
        "NORAD_CAT_ID": 23205,
        "ELEMENT_SET_NO": 999,
        "REV_AT_EPOCH": 24831,
        "BSTAR": 0,
        "MEAN_MOTION_DOT": 1.27e-06,
        "MEAN_MOTION_DDOT": 0
    },
    {
        "OBJECT_NAME": "COSMOS 2295 [GLONASS]",
        "OBJECT_ID": "1994-076A",
        "EPOCH": "2026-07-10T03:46:01.930656",
        "MEAN_MOTION": 2.13102443,
        "ECCENTRICITY": 0.003677,
        "INCLINATION": 64.8657,
        "RA_OF_ASC_NODE": 68.3351,
        "ARG_OF_PERICENTER": 203.4244,
        "MEAN_ANOMALY": 316.5451,
        "EPHEMERIS_TYPE": 0,
        "CLASSIFICATION_TYPE": "U",
        "NORAD_CAT_ID": 23396,
        "ELEMENT_SET_NO": 999,
        "REV_AT_EPOCH": 24599,
        "BSTAR": 0,
        "MEAN_MOTION_DOT": -2.4e-07,
        "MEAN_MOTION_DDOT": 0
    },
    {
        "OBJECT_NAME": "COSMOS 2296 [GLONASS]",
        "OBJECT_ID": "1994-076B",
        "EPOCH": "2026-07-08T14:57:40.521024",
        "MEAN_MOTION": 2.13099437,
        "ECCENTRICITY": 0.00097852,
        "INCLINATION": 64.855,
        "RA_OF_ASC_NODE": 68.2432,
        "ARG_OF_PERICENTER": 256.4399,
        "MEAN_ANOMALY": 293.0605,
        "EPHEMERIS_TYPE": 0,
        "CLASSIFICATION_TYPE": "U",
        "NORAD_CAT_ID": 23397,
        "ELEMENT_SET_NO": 999,
        "REV_AT_EPOCH": 24594,
        "BSTAR": 0,
        "MEAN_MOTION_DOT": -2.5e-07,
        "MEAN_MOTION_DDOT": 0
    },
    {
        "OBJECT_NAME": "COSMOS 2294 [GLONASS]",
        "OBJECT_ID": "1994-076C",
        "EPOCH": "2026-07-09T08:46:36.461856",
        "MEAN_MOTION": 2.13101586,
        "ECCENTRICITY": 0.00054313,
        "INCLINATION": 64.8492,
        "RA_OF_ASC_NODE": 68.0517,
        "ARG_OF_PERICENTER": 38.5195,
        "MEAN_ANOMALY": 144.7166,
        "EPHEMERIS_TYPE": 0,
        "CLASSIFICATION_TYPE": "U",
        "NORAD_CAT_ID": 23398,
        "ELEMENT_SET_NO": 999,
        "REV_AT_EPOCH": 24615,
        "BSTAR": 0,
        "MEAN_MOTION_DOT": -2.6e-07,
        "MEAN_MOTION_DDOT": 0
    }
]